IRIDIUM 33 DEB          
1 38477U 97051AAE 17344.98611817  .00000943  00000-0  90069-3 0  9994
2 38477  86.4254  73.8527 0479638 190.6780 168.3892 13.38098956154043
